{
    "1": {
        "street": "Travis St",
        "full_address": "4514 Travis St",
        "city": "Dallas",
        "state": "Texas",
        "state_short": "TX",
        "zip": "75205"
    },
    "2": {
        "street": "Deep Green Dr",
        "full_address": "6040 Deep Green Dr",
        "city": "Shelby",
        "state": "North Carolina",
        "state_short": "NC",
        "zip": "28152"
    },
    "3": {
        "street": "La Christa Way",
        "full_address": "7127 La Christa Way",
        "city": "Knoxville",
        "state": "Tennessee",
        "state_short": "TN",
        "zip": "37921"
    },
    "4": {
        "street": "N Ridge Ave",
        "full_address": "6002 N Ridge Ave",
        "city": "Chicago",
        "state": "Illinois",
        "state_short": "IL",
        "zip": "60660"
    },
    "5": {
        "street": "Queensborough Blvd",
        "full_address": "1145 Queensborough Blvd",
        "city": "Mount Pleasant",
        "state": "South Carolina",
        "state_short": "SC",
        "zip": "29464"
    },
    "6": {
        "street": "Key St",
        "full_address": "1913 Key St",
        "city": "Maumee",
        "state": "Ohio",
        "state_short": "OH",
        "zip": "43537"
    },
    "7": {
        "street": "Long Point Rd",
        "full_address": "8628 Long Point Rd",
        "city": "Houston",
        "state": "Texas",
        "state_short": "TX",
        "zip": "77055"
    },
    "8": {
        "street": "Anita Dr",
        "full_address": "7860 Anita Dr",
        "city": "Philadelphia",
        "state": "Pennsylvania",
        "state_short": "PA",
        "zip": "19111"
    },
    "9": {
        "street": "Castle Ct",
        "full_address": "1161 Castle Ct",
        "city": "Austin",
        "state": "Texas",
        "state_short": "TX",
        "zip": "78703"
    },
    "10": {
        "street": "Crescent Dr",
        "full_address": "3750 Crescent Dr",
        "city": "Steger",
        "state": "Illinois",
        "state_short": "IL",
        "zip": "60475"
    },
    "11": {
        "street": "N Carl G Rose Hwy",
        "full_address": "4322 N Carl G Rose Hwy",
        "city": "Hernando",
        "state": "Florida",
        "state_short": "FL",
        "zip": "34442"
    },
    "12": {
        "street": "Gateway Dr",
        "full_address": "9585 Gateway Dr",
        "city": "Reno",
        "state": "Nevada",
        "state_short": "NV",
        "zip": "89521"
    },
    "13": {
        "street": "Kimball Ave",
        "full_address": "8311 Kimball Ave",
        "city": "Skokie",
        "state": "Illinois",
        "state_short": "IL",
        "zip": "60076"
    },
    "14": {
        "street": "Caddo Springs Ct",
        "full_address": "9307 Caddo Springs Ct",
        "city": "Cypress",
        "state": "Texas",
        "state_short": "TX",
        "zip": "77433"
    },
    "15": {
        "street": "Valley View Rd",
        "full_address": "5207 Valley View Rd",
        "city": "Crystal Lake",
        "state": "Illinois",
        "state_short": "IL",
        "zip": "60014"
    },
    "16": {
        "street": "E Miami River Rd",
        "full_address": "7370 E Miami River Rd",
        "city": "Cincinnati",
        "state": "Ohio",
        "state_short": "OH",
        "zip": "45247"
    },
    "17": {
        "street": "Knoll Crest Dr",
        "full_address": "2029 Knoll Crest Dr",
        "city": "Arlington",
        "state": "Texas",
        "state_short": "TX",
        "zip": "76014"
    },
    "18": {
        "street": "Mcgraw Gap Rd",
        "full_address": "8265 Mcgraw Gap Rd",
        "city": "Hot Springs",
        "state": "Virginia",
        "state_short": "VA",
        "zip": "24445"
    },
    "19": {
        "street": "Landing Ln",
        "full_address": "7302 Landing Ln",
        "city": "Coraopolis",
        "state": "Pennsylvania",
        "state_short": "PA",
        "zip": "15108"
    },
    "20": {
        "street": "Ferguson Valley Rd",
        "full_address": "5425 Ferguson Valley Rd",
        "city": "Mc Veytown",
        "state": "Pennsylvania",
        "state_short": "PA",
        "zip": "17051"
    },
    "21": {
        "street": "S Riverside Plz",
        "full_address": "222 S Riverside Plz",
        "city": "Chicago",
        "state": "Illinois",
        "state_short": "IL",
        "zip": "60606"
    },
    "22": {
        "street": "Pine Trace Dr",
        "full_address": "4661 Pine Trace Dr",
        "city": "Raleigh",
        "state": "North Carolina",
        "state_short": "NC",
        "zip": "27613"
    },
    "23": {
        "street": "Park Crest Dr",
        "full_address": "6052 Park Crest Dr",
        "city": "Chino Hills",
        "state": "California",
        "state_short": "CA",
        "zip": "91709"
    },
    "24": {
        "street": "Cattle Baron Path",
        "full_address": "8824 Cattle Baron Path",
        "city": "Austin",
        "state": "Texas",
        "state_short": "TX",
        "zip": "78747"
    },
    "25": {
        "street": "Meadow Vale Dr",
        "full_address": "8391 Meadow Vale Dr",
        "city": "Memphis",
        "state": "Tennessee",
        "state_short": "TN",
        "zip": "38125"
    },
    "26": {
        "street": "Canyon View Dr",
        "full_address": "7519 Canyon View Dr",
        "city": "Deming",
        "state": "Washington",
        "state_short": "WA",
        "zip": "98244"
    },
    "27": {
        "street": "Country Walk Dr",
        "full_address": "7032 Country Walk Dr",
        "city": "Cordova",
        "state": "Tennessee",
        "state_short": "TN",
        "zip": "38018"
    },
    "28": {
        "street": "Summer Garden Ln",
        "full_address": "3868 Summer Garden Ln",
        "city": "Jacksonville",
        "state": "Florida",
        "state_short": "FL",
        "zip": "32223"
    },
    "29": {
        "street": "Persian Ter",
        "full_address": "8482 Persian Ter",
        "city": "Cicero",
        "state": "New York",
        "state_short": "NY",
        "zip": "13039"
    },
    "30": {
        "street": "Trace Rd",
        "full_address": "3181 Trace Rd",
        "city": "Gunlock",
        "state": "Kentucky",
        "state_short": "KY",
        "zip": "41632"
    },
    "31": {
        "street": "Cannon Ave",
        "full_address": "2718 Cannon Ave",
        "city": "Valdosta",
        "state": "Georgia",
        "state_short": "GA",
        "zip": "31601"
    },
    "32": {
        "street": "Gorman Pl",
        "full_address": "6209 Gorman Pl",
        "city": "Simpsonville",
        "state": "South Carolina",
        "state_short": "SC",
        "zip": "29680"
    },
    "33": {
        "street": "Windmill Ln",
        "full_address": "6262 Windmill Ln",
        "city": "Machesney Park",
        "state": "Illinois",
        "state_short": "IL",
        "zip": "61115"
    },
    "34": {
        "street": "Parkway Dr",
        "full_address": "7504 Parkway Dr",
        "city": "La Mesa",
        "state": "California",
        "state_short": "CA",
        "zip": "91942"
    },
    "35": {
        "street": "Main St",
        "full_address": "3452 Main St",
        "city": "Mineral Ridge",
        "state": "Ohio",
        "state_short": "OH",
        "zip": "44440"
    },
    "36": {
        "street": "Riverside Dr",
        "full_address": "2004 Riverside Dr",
        "city": "Asheville",
        "state": "North Carolina",
        "state_short": "NC",
        "zip": "28804"
    },
    "37": {
        "street": "Park Ln",
        "full_address": "1011 Park Ln",
        "city": "Greensboro",
        "state": "Georgia",
        "state_short": "GA",
        "zip": "30642"
    },
    "38": {
        "street": "Park Ln",
        "full_address": "1011 Park Ln",
        "city": "Greensboro",
        "state": "Georgia",
        "state_short": "GA",
        "zip": "30642"
    },
    "39": {
        "street": "Green St",
        "full_address": "710 Green St",
        "city": "Fort Valley",
        "state": "Georgia",
        "state_short": "GA",
        "zip": "31030"
    },
    "40": {
        "street": "Doctors Creek Rd",
        "full_address": "1137 Doctors Creek Rd",
        "city": "Walterboro",
        "state": "South Carolina",
        "state_short": "SC",
        "zip": "29488"
    },
    "41": {
        "street": "Trail Creek Cir",
        "full_address": "2610 Trail Creek Cir",
        "city": "Lithia Springs",
        "state": "Georgia",
        "state_short": "GA",
        "zip": "30122"
    },
    "42": {
        "street": "N County Line Rd",
        "full_address": "7998 N County Line Rd",
        "city": "Crescent",
        "state": "Oklahoma",
        "state_short": "OK",
        "zip": "73028"
    },
    "43": {
        "street": "Turncreek Rd",
        "full_address": "6090 Turncreek Rd",
        "city": "Thompsons Station",
        "state": "Tennessee",
        "state_short": "TN",
        "zip": "37179"
    },
    "44": {
        "street": "Highway 179",
        "full_address": "7381 Highway 179",
        "city": "Covington",
        "state": "Tennessee",
        "state_short": "TN",
        "zip": "38019"
    },
    "45": {
        "street": "S Cass Ct",
        "full_address": "3525 S Cass Ct",
        "city": "Oak Brook",
        "state": "Illinois",
        "state_short": "IL",
        "zip": "60523"
    },
    "46": {
        "street": "Crescent Gate Ln",
        "full_address": "8607 Crescent Gate Ln",
        "city": "Houston",
        "state": "Texas",
        "state_short": "TX",
        "zip": "77024"
    },
    "47": {
        "street": "Kershaw Camden Hwy",
        "full_address": "8696 Kershaw Camden Hwy",
        "city": "Kershaw",
        "state": "South Carolina",
        "state_short": "SC",
        "zip": "29067"
    },
    "48": {
        "street": "Barnes Ridge Rd",
        "full_address": "9770 Barnes Ridge Rd",
        "city": "Monroe",
        "state": "Tennessee",
        "state_short": "TN",
        "zip": "38573"
    },
    "49": {
        "street": "Expressway 83",
        "full_address": "1312 Expressway 83",
        "city": "Penitas",
        "state": "Texas",
        "state_short": "TX",
        "zip": "78576"
    },
    "50": {
        "street": "Chimney Hill Pkwy",
        "full_address": "953 Chimney Hill Pkwy",
        "city": "Virginia Beach",
        "state": "Virginia",
        "state_short": "VA",
        "zip": "23462"
    },
    "51": {
        "street": "Hasentree Way",
        "full_address": "7315 Hasentree Way",
        "city": "Wake Forest",
        "state": "North Carolina",
        "state_short": "NC",
        "zip": "27587"
    },
    "52": {
        "street": "Mount Joy Rd",
        "full_address": "8337 Mount Joy Rd",
        "city": "Mount Pleasant",
        "state": "Tennessee",
        "state_short": "TN",
        "zip": "38474"
    },
    "53": {
        "street": "River Bend Cir",
        "full_address": "7440 River Bend Cir",
        "city": "Nashville",
        "state": "Tennessee",
        "state_short": "TN",
        "zip": "37221"
    },
    "54": {
        "street": "Spring Breeze Dr",
        "full_address": "5802 Spring Breeze Dr",
        "city": "Colorado Springs",
        "state": "Colorado",
        "state_short": "CO",
        "zip": "80923"
    },
    "55": {
        "street": "Tallant View Ter",
        "full_address": "5479 Tallant View Ter",
        "city": "Ooltewah",
        "state": "Tennessee",
        "state_short": "TN",
        "zip": "37363"
    },
    "56": {
        "street": "White Dr",
        "full_address": "4265 White Dr",
        "city": "Suffolk",
        "state": "Virginia",
        "state_short": "VA",
        "zip": "23434"
    },
    "57": {
        "street": "Winter Garden Dr",
        "full_address": "2645 Winter Garden Dr",
        "city": "Chattanooga",
        "state": "Tennessee",
        "state_short": "TN",
        "zip": "37421"
    },
    "58": {
        "street": "Rocky Valley Rd",
        "full_address": "6028 Rocky Valley Rd",
        "city": "Greensboro",
        "state": "North Carolina",
        "state_short": "NC",
        "zip": "27407"
    },
    "59": {
        "street": "Fields Rd",
        "full_address": "9762 Fields Rd",
        "city": "Gaithersburg",
        "state": "Maryland",
        "state_short": "MD",
        "zip": "20878"
    },
    "60": {
        "street": "Scotland Ave",
        "full_address": "5842 Scotland Ave",
        "city": "Gibson",
        "state": "North Carolina",
        "state_short": "NC",
        "zip": "28343"
    },
    "61": {
        "street": "N Ocean Blvd",
        "full_address": "7718 N Ocean Blvd",
        "city": "Myrtle Beach",
        "state": "South Carolina",
        "state_short": "SC",
        "zip": "29572"
    },
    "62": {
        "street": "Galleria Dr",
        "full_address": "3385 Galleria Dr",
        "city": "Fayetteville",
        "state": "North Carolina",
        "state_short": "NC",
        "zip": "28303"
    },
    "63": {
        "street": "Kiowa St",
        "full_address": "7652 Kiowa St",
        "city": "Millington",
        "state": "Tennessee",
        "state_short": "TN",
        "zip": "38053"
    },
    "64": {
        "street": "Lakeside Rd",
        "full_address": "N8639 Lakeside Rd",
        "city": "Willard",
        "state": "Wisconsin",
        "state_short": "WI",
        "zip": "54493"
    },
    "65": {
        "street": "N Lakeshore Dr",
        "full_address": "N4815 N Lakeshore Dr",
        "city": "Princeton",
        "state": "Wisconsin",
        "state_short": "WI",
        "zip": "54968"
    },
    "66": {
        "street": "N Glebe Rd",
        "full_address": "3017 N Glebe Rd",
        "city": "Arlington",
        "state": "Virginia",
        "state_short": "VA",
        "zip": "22207"
    },
    "67": {
        "street": "N Willow Ave",
        "full_address": "1230 N Willow Ave",
        "city": "Cookeville",
        "state": "Tennessee",
        "state_short": "TN",
        "zip": "38501"
    },
    "68": {
        "street": "C St",
        "full_address": "1005 C St",
        "city": "Martinsville",
        "state": "Virginia",
        "state_short": "VA",
        "zip": "24112"
    },
    "69": {
        "street": "State Road 73",
        "full_address": "N2176 State Road 73",
        "city": "Wautoma",
        "state": "Wisconsin",
        "state_short": "WI",
        "zip": "54982"
    },
    "70": {
        "street": "Jolly Oak Rd",
        "full_address": "3647 Jolly Oak Rd",
        "city": "Okemos",
        "state": "Michigan",
        "state_short": "MI",
        "zip": "48864"
    },
    "71": {
        "street": "N School St",
        "full_address": "1015 N School St",
        "city": "Honolulu",
        "state": "Hawaii",
        "state_short": "HI",
        "zip": "96817"
    },
    "72": {
        "street": "Forbes Ave",
        "full_address": "5032 Forbes Ave",
        "city": "Pittsburgh",
        "state": "Pennsylvania",
        "state_short": "PA",
        "zip": "15289"
    },
    "73": {
        "street": "Heatherden Ave",
        "full_address": "485 Heatherden Ave",
        "city": "Fayetteville",
        "state": "Georgia",
        "state_short": "GA",
        "zip": "30214"
    },
    "74": {
        "street": "N Ocean Blvd",
        "full_address": "2200 N Ocean Blvd",
        "city": "Fort Lauderdale",
        "state": "Florida",
        "state_short": "FL",
        "zip": "33305"
    },
    "75": {
        "street": "Forbes Ave",
        "full_address": "5032 Forbes Ave",
        "city": "Pittsburgh",
        "state": "Pennsylvania",
        "state_short": "PA",
        "zip": "15289"
    },
    "76": {
        "street": "Lake Shore Rd",
        "full_address": "S5100 Lake Shore Rd",
        "city": "Hamburg",
        "state": "New York",
        "state_short": "NY",
        "zip": "14075"
    },
    "77": {
        "street": "S 1st St",
        "full_address": "15 S 1st St",
        "city": "Minneapolis",
        "state": "Minnesota",
        "state_short": "MN",
        "zip": "55401"
    },
    "78": {
        "street": "Oak Leaf Cir",
        "full_address": "19967 Oak Leaf Cir",
        "city": "Cornelius",
        "state": "North Carolina",
        "state_short": "NC",
        "zip": "28031"
    },
    "79": {
        "street": "County Road Tt",
        "full_address": "N5535 County Road Tt",
        "city": "Princeton",
        "state": "Wisconsin",
        "state_short": "WI",
        "zip": "54968"
    },
    "80": {
        "street": "Garamont Pkwy NW",
        "full_address": "9628 Garamont Pkwy NW",
        "city": "Concord",
        "state": "North Carolina",
        "state_short": "NC",
        "zip": "28027"
    }
}